[{"OBJECT_NAME":"YAOGAN-30 05A","OBJECT_ID":"2018-011B","EPOCH":"2026-03-09T23:00:41.042304","MEAN_MOTION":15.02108706,"ECCENTRICITY":0.00040081,"INCLINATION":34.9973,"RA_OF_ASC_NODE":35.5053,"ARG_OF_PERICENTER":199.9129,"MEAN_ANOMALY":160.1423,"EPHEMERIS_TYPE":0,"CLASSIFICATION_TYPE":"U","NORAD_CAT_ID":43170,"ELEMENT_SET_NO":999,"REV_AT_EPOCH":44321,"BSTAR":0.00032465095,"MEAN_MOTION_DOT":4.327e-5,"MEAN_MOTION_DDOT":0},{"OBJECT_NAME":"CZ-6A DEB","OBJECT_ID":"2022-151BA","EPOCH":"2026-03-08T17:30:58.855968","MEAN_MOTION":14.9439792,"ECCENTRICITY":0.00472807,"INCLINATION":98.5596,"RA_OF_ASC_NODE":128.1704,"ARG_OF_PERICENTER":200.9968,"MEAN_ANOMALY":158.931,"EPHEMERIS_TYPE":0,"CLASSIFICATION_TYPE":"U","NORAD_CAT_ID":54307,"ELEMENT_SET_NO":999,"REV_AT_EPOCH":10452,"BSTAR":0.0069448926,"MEAN_MOTION_DOT":0.00077164,"MEAN_MOTION_DDOT":0}]
